ASTRA 2F                
1 38778U 12051A   20132.31715962  .00000137  00000-0  00000-0 0  9995
2 38778   0.0571 230.0510 0000263 346.9191 154.9743  1.00269535 18826
GSAT-10                 
1 38779U 12051B   20132.59298880 -.00000177  00000-0  00000-0 0  9996
2 38779   0.1168 104.3050 0001796 283.9408 138.0672  1.00271016 27781
INTELSAT 23 (IS-23)     
1 38867U 12057A   20132.50434486 -.00000297  00000-0  00000-0 0  9998
2 38867   0.0250 276.9506 0002218 129.2611 312.1004  1.00272468 27663
BEIDOU 16               
1 38953U 12059A   20132.58243817 -.00000188  00000-0  00000-0 0  9999
2 38953   1.8436  83.8581 0003405 262.8640 176.7833  1.00273123 27716
LUCH 5B                 
1 38977U 12061A   20132.32896130 -.00000145  00000-0  00000-0 0  9995
2 38977   5.6731  67.8641 0003241 333.1852 290.6092  1.00271174 27836
YAMAL 300K              
1 38978U 12061B   20132.57885730  .00000058  00000-0  00000-0 0  9999
2 38978   0.0098 320.6259 0001578 295.3172   5.1956  1.00270723 27301
STAR ONE C3             
1 38991U 12062A   20132.49998307 -.00000261  00000-0  00000-0 0  9998
2 38991   0.0124 296.6927 0003184 139.5706 258.4594  1.00271090 27429
EUTELSAT 21B            
1 38992U 12062B   20132.51926220  .00000117  00000-0  00000-0 0  9996
2 38992   0.0698  10.0518 0002518  49.1662  19.0522  1.00271035 27518
ECHOSTAR 16             
1 39008U 12065A   20132.50268737 -.00000294  00000-0  00000-0 0  9996
2 39008   0.0107 278.8075 0001826 139.7942 290.6013  1.00269134 27285
CHINASAT 12 (ZX 12)     
1 39017U 12067A   20132.58243817 -.00000220  00000-0  00000-0 0  9997
2 39017   0.0129 334.8822 0003622  86.7654 105.3407  1.00272836 27179
EUTELSAT 70B            
1 39020U 12069A   20132.52903264 -.00000057  00000-0  00000-0 0  9994
2 39020   0.0667 351.9288 0002921 143.4765 355.3379  1.00273410 27175
YAMAL 402               
1 39022U 12070A   20132.52589213  .00000073  00000-0  00000-0 0  9999
2 39022   0.0174  58.2578 0003046  10.6475  45.0683  1.00271694 27062
SKYNET 5D               
1 39034U 12075A   20132.52545595  .00000087  00000-0  00000-0 0  9997
2 39034   0.0801 352.5521 0003524  63.2493  55.8725  1.00270138 26837
MEXSAT 3                
1 39035U 12075B   20132.58384260 -.00000038  00000-0  00000-0 0  9991
2 39035   0.0136 289.8786 0002004 141.6013 253.7020  1.00272176 26847
TDRS 11                 
1 39070U 13004A   20132.40424498  .00000065  00000-0  00000-0 0  9991
2 39070   3.8868 332.0282 0005970  51.0802 177.7089  1.00276222 26640
AMAZONAS 3              
1 39078U 13006A   20132.50277462 -.00000295  00000-0  00000-0 0  9995
2 39078   0.0270 187.5588 0001453 249.8394 272.3483  1.00273587 22558
AZERSPACE 1             
1 39079U 13006B   20132.54841355  .00000121  00000-0  00000-0 0  9995
2 39079   0.0328 101.6635 0001849 333.1846  38.3469  1.00270775 26476
SBIRS GEO-2 (USA 241)   
1 39120U 13011A   20132.51908774  .00000107  00000-0  00000-0 0  9998
2 39120   2.1728 341.8781 0002403  70.6845  24.7041  1.00270722 26229
EUTELSAT 117 WEST A     
1 39122U 13012A   20132.58291775 -.00000025  00000-0  00000-0 0  9994
2 39122   0.0454  82.9676 0002988 330.1480 269.7552  1.00273006 26100
ANIK G1                 
1 39127U 13014A   20132.49352760 -.00000087  00000-0  00000+0 0  9990
2 39127   0.0155 294.5205 0001470  81.5164 284.0447  1.00273516 25910
CHINASAT 11 (ZX 11)     
1 39157U 13020A   20132.57688102 -.00000304  00000-0  00000-0 0  9994
2 39157   0.0135 284.4316 0002188  74.3011 176.7806  1.00269767 25818
EUTELSAT 7B             
1 39163U 13022A   20132.43243872  .00000036  00000-0  00000+0 0  9999
2 39163   0.0742 320.6507 0005137  76.4337 355.2791  1.00274367 25634
WGS F5 (USA 243)        
1 39168U 13024A   20132.50443209 -.00000297  00000-0  00000-0 0  9991
2 39168   0.0130 280.5766 0000500 162.1634 276.0826  1.00270242 24842
SES-6                   
1 39172U 13026A   20132.43507955 -.00000273  00000-0  00000-0 0  9993
2 39172   0.0168 325.2386 0002149 102.7777 277.7824  1.00271096 25386
IRNSS-1A                
1 39199U 13034A   20131.97688208  .00000089  00000-0  00000+0 0  9993
2 39199  30.7838  97.3725 0017667 192.9510 345.7156  1.00267148 25309
MUOS-2                  
1 39206U 13036A   20132.57861998  .00000051  00000-0  00000-0 0  9990
2 39206   2.6443 355.6461 0052674 176.2886  89.1787  1.00274876 24868
ALPHASAT                
1 39215U 13038A   20132.30433288  .00000123  00000-0  00000-0 0  9990
2 39215   2.4351  20.6606 0002153  40.1457 303.1427  1.00271802 21700
INSAT-3D                
1 39216U 13038B   20132.58243817 -.00000169  00000-0  00000-0 0  9999
2 39216   0.0470  24.3239 0002166  41.9881  95.2696  1.00270960 24775
WGS F6 (USA 244)        
1 39222U 13041A   20132.60526370  .00000077  00000-0  00000-0 0  9998
2 39222   0.0122 293.6871 0000481 175.9069 202.9525  1.00271489 23711
EUTELSAT 25B            
1 39233U 13044A   20132.52004733  .00000131  00000-0  00000-0 0  9999
2 39233   0.0519 359.3534 0002144  66.1808  16.9601  1.00278907 24305
GSAT-7                  
1 39234U 13044B   20132.52973051 -.00000090  00000-0  00000-0 0  9993
2 39234   0.0108  55.9889 0005728 223.8445 214.6315  1.00272198 22990
AMOS-4                  
1 39237U 13045A   20132.52789855 -.00000006  00000-0  00000-0 0  9991
2 39237   0.0518 102.4967 0002736 305.8130  76.5008  1.00272419 24623
AEHF-3 (USA 246)        
1 39256U 13050A   20132.53714556 -.00000368  00000-0  00000-0 0  9996
2 39256   0.6413 348.3774 0005202  35.4847 150.3883  1.00273117 23338
ASTRA 2E                
1 39285U 13056A   20132.31715962  .00000138  00000-0  00000-0 0  9996
2 39285   0.0804  54.0949 0001987   5.3970 312.7569  1.00273407 24127
SIRIUS FM-6             
1 39360U 13058A   20132.58291792 -.00000029  00000-0  00000-0 0  9991
2 39360   0.0240 293.0430 0001074 336.8087  53.6714  1.00270287 23825
RADUGA-1M 3             
1 39375U 13062A   20132.55396753  .00000143  00000-0  10000-3 0  9992
2 39375   0.3504  99.4980 0005577 315.7607  48.9502  1.00274249 23791
SES-8                   
1 39460U 13071A   20132.35743882 -.00000282  00000-0  00000-0 0  9995
2 39460   0.0167 215.1514 0002841 211.1554  26.9681  1.00271460 22154
INMARSAT 5-F1           
1 39476U 13073A   20132.52746237  .00000015  00000-0  00000-0 0  9993
2 39476   0.0155 295.3321 0000566 145.8607  41.0465  1.00270952 23253
TKSAT-1 (TUPAC KATARI)  
1 39481U 13075A   20132.49745323 -.00000207  00000-0  00000-0 0  9996
2 39481   0.0637  95.4511 0003421 313.8804 272.2940  1.00271922 23257
EXPRESS-AM5             
1 39487U 13077A   20132.56021685 -.00000292  00000-0  00000-0 0  9994
2 39487   0.0153 269.3953 0001231 100.4296 201.6851  1.00272719 24028
GSAT-14                 
1 39498U 14001A   20132.52973051 -.00000090  00000-0  00000-0 0  9999
2 39498   0.0138 271.7876 0002038  30.8512 191.8540  1.00271235 23089
THAICOM 6               
1 39500U 14002A   20132.53060288 -.00000134  00000-0  00000-0 0  9993
2 39500   0.0763 113.6101 0003745 338.5041  47.1704  1.00271391 23126
TDRS 12                 
1 39504U 14004A   20132.50643852 -.00000285  00000-0  00000-0 0  9997
2 39504   4.7024 338.2247 0001706 107.6856 285.1595  1.00277482 21948
ABS-2                   
1 39508U 14006A   20132.39076975 -.00000099  00000-0  00000-0 0  9999
2 39508   0.0278  68.1376 0004106 344.5242  32.5692  1.00272577 22956
ATHENA-FIDUS            
1 39509U 14006B   20132.52248993  .00000141  00000-0  00000-0 0  9993
2 39509   0.0185 300.0060 0001564 124.1024  31.5338  1.00271667 22749
TURKSAT 4A              
1 39522U 14007A   20132.52327506  .00000133  00000-0  00000-0 0  9998
2 39522   0.0132 268.2114 0002184  76.8857 115.0251  1.00273804 22654
EXPRESS-AT1             
1 39612U 14010A   20132.52606661  .00000067  00000-0  00000-0 0  9990
2 39612   0.0134 288.3753 0000606 203.8637 342.9039  1.00265545 22482
EXPRESS-AT2             
1 39613U 14010B   20131.25074413 -.00000293  00000-0  00000+0 0  9995
2 39613   0.0048  95.0878 0000916 359.1313   4.3955  1.00270410 22537
AMAZONAS 4A             
1 39616U 14011A   20132.50015753 -.00000265  00000-0  00000-0 0  9990
2 39616   0.0882  79.1275 0003371 337.4727 279.2348  1.00272391 22355
ASTRA 5B                
1 39617U 14011B   20132.32618584  .00000142  00000-0  00000-0 0  9995
2 39617   0.0476 307.9756 0003500 118.1591 312.3554  1.00273439 22327
IRNSS-1B                
1 39635U 14017A   20131.96646392  .00000070  00000-0  00000-0 0  9998
2 39635  28.6504 277.8189 0021571 178.2659 176.0351  1.00273479 22245
LUCH 5V                 
1 39727U 14023A   20132.60562613 -.00000281  00000-0  00000-0 0  9997
2 39727   0.5862 326.8623 0004376 105.0377 110.6632  1.00268684540186
KAZSAT-3                
1 39728U 14023B   20132.59092563  .00000048  00000-0  00000-0 0  9998
2 39728   0.0193 236.1875 0000283 258.9484   5.9211  1.00271185 20127
EUTELSAT 3B             
1 39773U 14030A   20132.33382809  .00000007  00000-0  00000-0 0  9998
2 39773   0.0659  11.5087 0004222 127.2671 214.0587  1.00271476 21726
USA 253                 
1 40099U 14043A   20131.64648882 -.00000153  00000-0  99999+0 0  9991
2 40099   0.2660 105.5351 0002840  31.0123  45.8055  1.00263014  5719
USA 254                 
1 40100U 14043B   20132.49842190  .00000121  00000-0  00000+0 0  9995
2 40100   0.4838  97.3234 0004141 344.0260 176.7843  1.00109374  5418
ASIASAT 8               
1 40107U 14046A   20132.33382809 -.00000046  00000-0  00000+0 0  9991
2 40107   0.0124 282.1279 0002567 150.4389 273.2981  1.00271709 21150
ASIASAT 6               
1 40141U 14052A   20132.56577125 -.00000375  00000-0  00000-0 0  9994
2 40141   0.0614 102.8841 0000891 333.0421 117.4636  1.00272193 20725
OPTUS 10                
1 40146U 14054A   20132.54604399 -.00000160  00000-0  00000-0 0  9995
2 40146   0.0709  64.1085 0002617   7.0412 151.2189  1.00271185 20685
